GLOBALSTAR M094         
1 39074U 13005C   24259.80408419 -.00000055  00000+0  27051-3 0  9996
2 39074  51.9960 297.5358 0000510  68.9334 291.1587 12.62268285537722
GLOBALSTAR M096         
1 39075U 13005D   24259.73812430 -.00000068  00000+0  19746-3 0  9997
2 39075  52.0101 346.0356 0000636  71.7335 288.3601 12.62270043536631
GLOBALSTAR M078         
1 39076U 13005E   24259.86988577 -.00000090  00000+0  78571-4 0  9995
2 39076  51.9871  70.5128 0000407 338.1271  21.9578 12.62274737535272
GLOBALSTAR M095         
1 39077U 13005F   24259.81727564 -.00000085  00000+0  10725-3 0  9998
2 39077  51.9798  68.0069 0000731  40.6680 319.4241 12.62264816535129
